start=new Date('2021-10-12T00:00:00.000Z').valueOf();
sats=[{"OBJECT_NAME":"STARLINK-1705","SEMIMAJOR_AXIS":"6925.379","REV_AT_EPOCH":"5708","REF_FRAME":"TEME","OBJECT_TYPE":"PAYLOAD","FILE":"3157563","MEAN_MOTION_DDOT":"0.0000000000000","ELEMENT_SET_NO":"999","PERIOD":"95.593","TLE_LINE2":"2 46579  53.0540 188.2502 0001795  71.8506 288.2678 15.06390115 57087","TIME_SYSTEM":"UTC","APOAPSIS":"548.487","BSTAR":"0.00013507000000","EPHEMERIS_TYPE":"0","CLASSIFICATION_TYPE":"U","OBJECT_ID":"2020-070AZ","RA_OF_ASC_NODE":"188.2502","ECCENTRICITY":"0.00017950","EPOCH":"2021-10-11T21:37:18.783840","LAUNCH_DATE":"2020-10-06","MEAN_MOTION":"15.06390115","SITE":"AFETR","PERIAPSIS":"546.001","DECAY_DATE":null,"NORAD_CAT_ID":"46579","COUNTRY_CODE":"US","TLE_LINE1":"1 46579U 20070AZ  21284.90091185  .00001730  00000-0  13507-3 0  9990","MEAN_MOTION_DOT":"0.00001730","GP_ID":"186930457","MEAN_ELEMENT_THEORY":"SGP4","INCLINATION":"53.0540","CENTER_NAME":"EARTH","ARG_OF_PERICENTER":"71.8506","RCS_SIZE":"LARGE","MEAN_ANOMALY":"288.2678"},{"SITE":"AFETR","MEAN_MOTION":"15.06396708","LAUNCH_DATE":"2020-10-06","ECCENTRICITY":"0.00017510","EPOCH":"2021-10-11T21:05:27.443040","RA_OF_ASC_NODE":"188.3387","OBJECT_ID":"2020-070BA","CLASSIFICATION_TYPE":"U","EPHEMERIS_TYPE":"0","BSTAR":"0.00004101000000","APOAPSIS":"548.436","TIME_SYSTEM":"UTC","TLE_LINE2":"2 46580  53.0541 188.3387 0001751  63.5546 296.5622 15.06396708 57081","PERIOD":"95.592","ELEMENT_SET_NO":"999","MEAN_MOTION_DDOT":"0.0000000000000","FILE":"3157563","OBJECT_TYPE":"PAYLOAD","REF_FRAME":"TEME","REV_AT_EPOCH":"5708","SEMIMAJOR_AXIS":"6925.359","OBJECT_NAME":"STARLINK-1708","MEAN_ANOMALY":"296.5622","RCS_SIZE":"LARGE","ARG_OF_PERICENTER":"63.5546","INCLINATION":"53.0541","CENTER_NAME":"EARTH","MEAN_ELEMENT_THEORY":"SGP4","GP_ID":"186929205","MEAN_MOTION_DOT":"0.00000329","TLE_LINE1":"1 46580U 20070BA  21284.87878985  .00000329  00000-0  41010-4 0  9993","COUNTRY_CODE":"US","NORAD_CAT_ID":"46580","DECAY_DATE":null,"PERIAPSIS":"546.011"},{"EPHEMERIS_TYPE":"0","BSTAR":"0.00006465500000","OBJECT_ID":"2020-070BB","CLASSIFICATION_TYPE":"U","EPOCH":"2021-10-11T21:51:14.452416","ECCENTRICITY":"0.00019000","RA_OF_ASC_NODE":"183.1865","SITE":"AFETR","MEAN_MOTION":"15.06396601","LAUNCH_DATE":"2020-10-06","FILE":"3157563","MEAN_MOTION_DDOT":"0.0000000000000","TLE_LINE2":"2 46581  53.0545 183.1865 0001900  64.7681 295.3505 15.06396601 57156","ELEMENT_SET_NO":"999","PERIOD":"95.592","TIME_SYSTEM":"UTC","APOAPSIS":"548.540","REF_FRAME":"TEME","OBJECT_TYPE":"PAYLOAD","OBJECT_NAME":"STARLINK-1712","REV_AT_EPOCH":"5715","SEMIMAJOR_AXIS":"6925.359","MEAN_ANOMALY":"295.3505","RCS_SIZE":"LARGE","MEAN_ELEMENT_THEORY":"SGP4","CENTER_NAME":"EARTH","INCLINATION":"53.0545","ARG_OF_PERICENTER":"64.7681","DECAY_DATE":null,"PERIAPSIS":"545.908","COUNTRY_CODE":"US","NORAD_CAT_ID":"46581","MEAN_MOTION_DOT":"0.00000681","TLE_LINE1":"1 46581U 20070BB  21284.91058394  .00000681  00000-0  64655-4 0  9994","GP_ID":"186928956"},{"PERIAPSIS":"546.081","DECAY_DATE":null,"NORAD_CAT_ID":"46582","COUNTRY_CODE":"US","TLE_LINE1":"1 46582U 20070BC  21284.90226575  .00000724  00000-0  67482-4 0  9991","MEAN_MOTION_DOT":"0.00000724","GP_ID":"186930207","MEAN_ELEMENT_THEORY":"SGP4","INCLINATION":"53.0550","CENTER_NAME":"EARTH","ARG_OF_PERICENTER":"67.5404","RCS_SIZE":"LARGE","MEAN_ANOMALY":"292.5759","OBJECT_NAME":"STARLINK-1728","REV_AT_EPOCH":"5715","SEMIMAJOR_AXIS":"6925.358","REF_FRAME":"TEME","OBJECT_TYPE":"PAYLOAD","MEAN_MOTION_DDOT":"0.0000000000000","FILE":"3157563","PERIOD":"95.592","ELEMENT_SET_NO":"999","TLE_LINE2":"2 46582  53.0550 183.2429 0001649  67.5404 292.5759 15.06396947 57157","TIME_SYSTEM":"UTC","APOAPSIS":"548.365","BSTAR":"0.00006748200000","EPHEMERIS_TYPE":"0","CLASSIFICATION_TYPE":"U","OBJECT_ID":"2020-070BC","RA_OF_ASC_NODE":"183.2429","EPOCH":"2021-10-11T21:39:15.760800","ECCENTRICITY":"0.00016490","LAUNCH_DATE":"2020-10-06","SITE":"AFETR","MEAN_MOTION":"15.06396947"},{"MEAN_ANOMALY":"287.7255","RCS_SIZE":"LARGE","MEAN_ELEMENT_THEORY":"SGP4","CENTER_NAME":"EARTH","INCLINATION":"53.0551","ARG_OF_PERICENTER":"72.3920","DECAY_DATE":null,"PERIAPSIS":"546.039","COUNTRY_CODE":"US","NORAD_CAT_ID":"46583","MEAN_MOTION_DOT":"0.00000772","TLE_LINE1":"1 46583U 20070BD  21284.48116577  .00000772  00000-0  70760-4 0  9991","GP_ID":"186895737","EPHEMERIS_TYPE":"0","BSTAR":"0.00007076000000","OBJECT_ID":"2020-070BD","CLASSIFICATION_TYPE":"U","EPOCH":"2021-10-11T11:32:52.722528","ECCENTRICITY":"0.00017030","RA_OF_ASC_NODE":"205.1350","MEAN_MOTION":"15.06398432","SITE":"AFETR","LAUNCH_DATE":"2020-10-06","FILE":"3157068","MEAN_MOTION_DDOT":"0.0000000000000","TLE_LINE2":"2 46583  53.0551 205.1350 0001703  72.3920 287.7255 15.06398432 56803","ELEMENT_SET_NO":"999","PERIOD":"95.592","TIME_SYSTEM":"UTC","APOAPSIS":"548.398","REF_FRAME":"TEME","OBJECT_TYPE":"PAYLOAD","OBJECT_NAME":"STARLINK-1729","SEMIMAJOR_AXIS":"6925.353","REV_AT_EPOCH":"5680"},{"MEAN_ANOMALY":"299.0240","RCS_SIZE":"LARGE","ARG_OF_PERICENTER":"61.0936","INCLINATION":"53.0534","CENTER_NAME":"EARTH","MEAN_ELEMENT_THEORY":"SGP4","GP_ID":"186928706","TLE_LINE1":"1 46584U 20070BE  21284.89952492  .00000084  00000-0  24534-4 0  9995","MEAN_MOTION_DOT":"0.00000084","NORAD_CAT_ID":"46584","COUNTRY_CODE":"US","PERIAPSIS":"545.940","DECAY_DATE":null,"LAUNCH_DATE":"2020-10-06","SITE":"AFETR","MEAN_MOTION":"15.06395153","RA_OF_ASC_NODE":"183.2435","ECCENTRICITY":"0.00018610","EPOCH":"2021-10-11T21:35:18.953088","CLASSIFICATION_TYPE":"U","OBJECT_ID":"2020-070BE","BSTAR":"0.00002453400000","EPHEMERIS_TYPE":"0","APOAPSIS":"548.517","TIME_SYSTEM":"UTC","PERIOD":"95.592","ELEMENT_SET_NO":"999","TLE_LINE2":"2 46584  53.0534 183.2435 0001861  61.0936 299.0240 15.06395153 57158","FILE":"3157563","MEAN_MOTION_DDOT":"0.0000000000000","OBJECT_TYPE":"PAYLOAD","REF_FRAME":"TEME","REV_AT_EPOCH":"5715","SEMIMAJOR_AXIS":"6925.363","OBJECT_NAME":"STARLINK-1732"},{"SEMIMAJOR_AXIS":"6925.358","REV_AT_EPOCH":"5715","OBJECT_NAME":"STARLINK-1736","REF_FRAME":"TEME","OBJECT_TYPE":"PAYLOAD","TIME_SYSTEM":"UTC","APOAPSIS":"548.355","MEAN_MOTION_DDOT":"0.0000000000000","FILE":"3157563","TLE_LINE2":"2 46585  53.0541 183.1747 0001635  74.7239 285.3931 15.06397035 57154","ELEMENT_SET_NO":"999","PERIOD":"95.592","EPOCH":"2021-10-11T22:01:52.660704","ECCENTRICITY":"0.00016350","RA_OF_ASC_NODE":"183.1747","SITE":"AFETR","MEAN_MOTION":"15.06397035","LAUNCH_DATE":"2020-10-06","EPHEMERIS_TYPE":"0","BSTAR":"0.00022981000000","OBJECT_ID":"2020-070BF","CLASSIFICATION_TYPE":"U","MEAN_MOTION_DOT":"0.00003143","TLE_LINE1":"1 46585U 20070BF  21284.91797061  .00003143  00000-0  22981-3 0  9990","GP_ID":"186929456","DECAY_DATE":null,"PERIAPSIS":"546.090","COUNTRY_CODE":"US","NORAD_CAT_ID":"46585","INCLINATION":"53.0541","CENTER_NAME":"EARTH","ARG_OF_PERICENTER":"74.7239","MEAN_ELEMENT_THEORY":"SGP4","RCS_SIZE":"LARGE","MEAN_ANOMALY":"285.3931"},{"TLE_LINE2":"2 46586  53.0537 183.2185 0001881  69.3724 290.7467 15.06401717 57156","PERIOD":"95.592","ELEMENT_SET_NO":"999","FILE":"3157563","MEAN_MOTION_DDOT":"0.0000000000000","APOAPSIS":"548.511","TIME_SYSTEM":"UTC","OBJECT_ID":"2020-070BG","CLASSIFICATION_TYPE":"U","EPHEMERIS_TYPE":"0","BSTAR":"0.00013626000000","MEAN_MOTION":"15.06401717","SITE":"AFETR","LAUNCH_DATE":"2020-10-06","EPOCH":"2021-10-11T21:45:55.560384","ECCENTRICITY":"0.00018810","RA_OF_ASC_NODE":"183.2185","OBJECT_NAME":"STARLINK-1737","REV_AT_EPOCH":"5715","SEMIMAJOR_AXIS":"6925.343","OBJECT_TYPE":"PAYLOAD","REF_FRAME":"TEME","RCS_SIZE":"LARGE","MEAN_ANOMALY":"290.7467","COUNTRY_CODE":"US","NORAD_CAT_ID":"46586","DECAY_DATE":null,"PERIAPSIS":"545.906","GP_ID":"186929708","MEAN_MOTION_DOT":"0.00001749","TLE_LINE1":"1 46586U 20070BG  21284.90689306  .00001749  00000-0  13626-3 0  9998","MEAN_ELEMENT_THEORY":"SGP4","ARG_OF_PERICENTER":"69.3724","CENTER_NAME":"EARTH","INCLINATION":"53.0537"},{"MEAN_ANOMALY":"290.5705","RCS_SIZE":"LARGE","MEAN_ELEMENT_THEORY":"SGP4","ARG_OF_PERICENTER":"69.5484","CENTER_NAME":"EARTH","INCLINATION":"53.0536","NORAD_CAT_ID":"46588","COUNTRY_CODE":"US","PERIAPSIS":"545.923","DECAY_DATE":null,"GP_ID":"186930458","TLE_LINE1":"1 46588U 20070BJ  21284.88847462  .00002622  00000-0  19487-3 0  9998","MEAN_MOTION_DOT":"0.00002622","CLASSIFICATION_TYPE":"U","OBJECT_ID":"2020-070BJ","BSTAR":"0.00019487000000","EPHEMERIS_TYPE":"0","LAUNCH_DATE":"2020-10-06","SITE":"AFETR","MEAN_MOTION":"15.06398489","RA_OF_ASC_NODE":"183.2927","EPOCH":"2021-10-11T21:19:24.207168","ECCENTRICITY":"0.00018700","ELEMENT_SET_NO":"999","PERIOD":"95.592","TLE_LINE2":"2 46588  53.0536 183.2927 0001870  69.5484 290.5705 15.06398489 57158","FILE":"3157563","MEAN_MOTION_DDOT":"0.0000000000000","APOAPSIS":"548.513","TIME_SYSTEM":"UTC","OBJECT_TYPE":"PAYLOAD","REF_FRAME":"TEME","OBJECT_NAME":"STARLINK-1746","SEMIMAJOR_AXIS":"6925.353","REV_AT_EPOCH":"5715"},{"FILE":"3157563","MEAN_MOTION_DDOT":"0.0000000000000","TLE_LINE2":"2 46589  53.0546 183.0293 0001682  65.6998 294.4166 15.06393313 57157","ELEMENT_SET_NO":"999","PERIOD":"95.593","TIME_SYSTEM":"UTC","APOAPSIS":"548.399","EPHEMERIS_TYPE":"0","BSTAR":"0.00005046100000","OBJECT_ID":"2020-070BK","CLASSIFICATION_TYPE":"U","EPOCH":"2021-10-11T22:44:19.095072","ECCENTRICITY":"0.00016820","RA_OF_ASC_NODE":"183.0293","SITE":"AFETR","MEAN_MOTION":"15.06393313","LAUNCH_DATE":"2020-10-06","OBJECT_NAME":"STARLINK-1749","SEMIMAJOR_AXIS":"6925.369","REV_AT_EPOCH":"5715","REF_FRAME":"TEME","OBJECT_TYPE":"PAYLOAD","RCS_SIZE":"LARGE","MEAN_ANOMALY":"294.4166","DECAY_DATE":null,"PERIAPSIS":"546.069","COUNTRY_CODE":"US","NORAD_CAT_ID":"46589","MEAN_MOTION_DOT":"0.00000470","TLE_LINE1":"1 46589U 20070BK  21284.94744323  .00000470  00000-0  50461-4 0  9995","GP_ID":"186929206","MEAN_ELEMENT_THEORY":"SGP4","CENTER_NAME":"EARTH","INCLINATION":"53.0546","ARG_OF_PERICENTER":"65.6998"}];
